2026-134D               
1 69541U 26134D   26181.77725471  .00004800  00000+0  30215-3 0  9994
2 69541  97.7033 251.9429 0015378 223.9671 136.0335 15.09580554  2355
2026-134E               
1 69542U 26134E   26181.77702728  .00004739  00000+0  29819-3 0  9994
2 69542  97.7050 251.9465 0015094 224.7710 135.2301 15.09602252  2357
2026-134F               
1 69543U 26134F   26181.77655372  .00004682  00000+0  29438-3 0  9991
2 69543  97.7003 251.9382 0014358 226.5726 133.4308 15.09648005  2356
2026-134G               
1 69544U 26134G   26181.77568873  .00004708  00000+0  29530-3 0  9993
2 69544  97.7047 251.9477 0014880 227.3554 132.6421 15.09731891  2351
2026-134H               
1 69545U 26134H   26181.77500972  .00004790  00000+0  29984-3 0  9994
2 69545  97.7030 251.9459 0014684 228.8530 131.1432 15.09798218  2347
STARLINK-37880          
1 69546U 26135A   26181.50945280  .00374378  00000+0  18598-2 0  9992
2 69546  97.2837 209.2747 0000818  35.8842 324.2481 15.80965824  2369
STARLINK-37881          
1 69547U 26135B   26181.50887932  .00260282  00000+0  13122-2 0  9998
2 69547  97.2841 209.2757 0000528 294.6409  65.4804 15.80935519  2369
STARLINK-37265          
1 69548U 26135C   26181.50820619  .00264319  00000+0  13319-2 0  9991
2 69548  97.2843 209.2766 0000898 263.1911  96.9255 15.80937502  2364
STARLINK-37871          
1 69549U 26135D   26181.50727640  .00255619  00000+0  12899-2 0  9997
2 69549  97.2837 209.2778 0000178  49.5462 310.5822 15.80926989  2361
STARLINK-37865          
1 69550U 26135E   26181.50582947  .00238621  00000+0  12087-2 0  9991
2 69550  97.2833 209.2793 0000083  86.0610 274.0668 15.80888473  2369
STARLINK-37862          
1 69551U 26135F   26181.50303148  .00414546  00000+0  20475-2 0  9998
2 69551  97.2832 209.2834 0000640 356.9348   3.1916 15.80987629  2361
STARLINK-37861          
1 69552U 26135G   26181.50112356  .00297889  00000+0  14961-2 0  9990
2 69552  97.2832 209.2859 0000872  84.4127 275.7240 15.80922190  2363
STARLINK-37859          
1 69553U 26135H   26180.80360345  .00490171  00000+0  23822-2 0  9991
2 69553  97.2823 208.5509 0001588 351.7524   8.3718 15.81150023  2251
STARLINK-37860          
1 69554U 26135J   26180.86690138  .00124008  00000+0  63700-3 0  9997
2 69554  97.2842 208.6184 0000984  45.8362 314.2987 15.80884420  2265
STARLINK-37858          
1 69555U 26135K   26181.83335647  .00019462  00000+0  10214-3 0  9996
2 69555  97.2841 209.6474 0001192  80.1898  26.5960 15.80811730  3502
STARLINK-37927          
1 69556U 26135L   26181.49785953  .00472538  00000+0  23073-2 0  9991
2 69556  97.2847 209.2903 0000647 301.3010  58.8194 15.81090620  2368
STARLINK-37929          
1 69557U 26135M   26181.49702781  .00415688  00000+0  20535-2 0  9993
2 69557  97.2830 209.2916 0001589  24.5239 335.6104 15.80983328  2360
STARLINK-37954          
1 69558U 26135N   26181.36920232  .00366379  00000+0  18195-2 0  9994
2 69558  97.2835 209.1599 0001106 181.7646 178.3619 15.80993409  2347
STARLINK-37958          
1 69559U 26135P   26181.66668980 -.00067829  00000+0 -35542-3 0  9993
2 69559  97.2839 209.4809 0001512 102.5998 163.3734 15.80858510  3482
STARLINK-37950          
1 69560U 26135Q   26181.05008789  .00169148  00000+0  86433-3 0  9993
2 69560  97.2837 208.8287 0000803  74.7302 285.4055 15.80878634  2295
STARLINK-37952          
1 69561U 26135R   26181.04868839  .00138968  00000+0  71392-3 0  9997
2 69561  97.2829 208.8311 0001265  17.8731 342.2582 15.80841419  2290
STARLINK-37935          
1 69562U 26135S   26181.04791659  .00337862  00000+0  16860-2 0  9995
2 69562  97.2827 208.8318 0001173 129.8057 230.3315 15.80960290  2299
STARLINK-37936          
1 69563U 26135T   26181.67359700  .05823893  00000+0  21322-1 0  9999
2 69563  97.2832 209.5159 0009835 305.5331  54.5021 15.83913269  2396
STARLINK-37932          
1 69564U 26135U   26181.54641397  .00477672  00000+0  23416-2 0  9994
2 69564  97.2811 209.3787 0000911 236.5058 123.6124 15.80990840  2371
STARLINK-37916          
1 69565U 26135V   26181.54642190  .00363746  00000+0  18121-2 0  9990
2 69565  97.2811 209.3781 0001378  76.6798 283.4624 15.80931531  2370
STARLINK-37909          
1 69566U 26135W   26181.54009190  .00243237  00000+0  12289-2 0  9999
2 69566  97.2826 209.3881 0001064  57.8146 302.3226 15.80934678  2372
STARLINK-37934          
1 69567U 26135X   26181.54329690  .00376571  00000+0  18562-2 0  9998
2 69567  97.2826 209.3835 0000776 357.5462   2.5802 15.81129897  2371
STARLINK-37938          
1 69568U 26135Y   26181.54084536  .00333733  00000+0  16651-2 0  9996
2 69568  97.2832 209.3867 0001546 234.9283 125.1841 15.80976032  2374
STARLINK-37924          
1 69569U 26135Z   26181.79129316  .00233467  00000+0  11819-2 0  9994
2 69569  97.2824 209.6574 0001292 119.8962 240.2435 15.80914837  2415
SHIJIAN-31 (SJ-31)      
1 69570U 26136A   26181.50030604 -.00000395  00000+0  00000+0 0  9997
2 69570  63.4803 354.7071 6940886 171.7852 212.4449  1.92228328   342
